TIANMU-1 15             
1 58700U 24004A   25267.26909321  .00011389  00000+0  48531-3 0  9999
2 58700  97.4671  89.0903 0006043 199.1239 160.9772 15.23105553 95244
TIANMU-1 16             
1 58701U 24004B   25267.31639634  .00011504  00000+0  48947-3 0  9993
2 58701  97.4609  88.5990 0006237 205.1612 154.9321 15.23152302 95252
TIANMU-1 17             
1 58702U 24004C   25267.29671367  .00010737  00000+0  45806-3 0  9998
2 58702  97.4645  88.9630 0005289 193.0508 167.0592 15.23082374 95248
TIANMU-1 18             
1 58703U 24004D   25267.28134593  .00010677  00000+0  45418-3 0  9995
2 58703  97.4661  89.1214 0005047 189.9396 170.1742 15.23184308 95241
INSAT-3DS               
1 58990U 24033A   25267.09364058  .00000000  00000+0  00000+0 0  9998
2 58990   0.0193 194.5533 0001392 350.9970 293.4048  1.00269085 44407
METEOR-M2 4             
1 59051U 24039A   25267.28690859  .00000080  00000+0  55323-4 0  9996
2 59051  98.6618 225.4971 0006302 212.4834 147.5957 14.22381820 81463
GOES 19                 
1 60133U 24119A   25265.39767113 -.00000255  00000+0  00000+0 0  9998
2 60133   0.0477 343.3152 0000685 282.7486 163.3997  1.00270700  4278
