OBJECT_NAME,OBJECT_ID,EPOCH,MEAN_MOTION,ECCENTRICITY,INCLINATION,RA_OF_ASC_NODE,ARG_OF_PERICENTER,MEAN_ANOMALY,EPHEMERIS_TYPE,CLASSIFICATION_TYPE,NORAD_CAT_ID,ELEMENT_SET_NO,REV_AT_EPOCH,BSTAR,MEAN_MOTION_DOT,MEAN_MOTION_DDOT
TIANMU-1 15,2024-004A,2025-09-24T06:27:29.653344,15.23105553,.00060437,97.4671,89.0903,199.1239,160.9772,0,U,58700,999,9524,.48530652E-3,.11389E-3,0
TIANMU-1 16,2024-004B,2025-09-24T07:35:36.643776,15.23152302,.00062373,97.4609,88.5990,205.1612,154.9321,0,U,58701,999,9525,.48946828E-3,.11504E-3,0
TIANMU-1 17,2024-004C,2025-09-24T07:07:16.061088,15.23082374,.00052897,97.4645,88.9630,193.0508,167.0592,0,U,58702,999,9524,.45806442E-3,.10737E-3,0
TIANMU-1 18,2024-004D,2025-09-24T06:45:08.288352,15.23184308,.00050477,97.4661,89.1214,189.9396,170.1742,0,U,58703,999,9524,.45418309E-3,.10677E-3,0
INSAT-3DS,2024-033A,2025-09-24T02:14:50.546112,1.00269085,.00013923,0.0193,194.5533,350.9970,293.4048,0,U,58990,999,4440,0,0,0
METEOR-M2 4,2024-039A,2025-09-24T06:53:08.902176,14.22381820,.00063027,98.6618,225.4971,212.4834,147.5957,0,U,59051,999,8146,.55323079E-4,.8E-6,0
GOES 19,2024-119A,2025-09-22T09:32:38.785632,1.00270700,.00006858,0.0477,343.3152,282.7486,163.3997,0,U,60133,999,427,0,-.255E-5,0
